2023-104A               
1 57424U 23104A   26065.78279804  .00015492  00000+0  48200-3 0  9993
2 57424  97.2792 135.5625 0009333 122.1915 238.0234 15.33350758146346
STARLINK-34146          
1 64098U 25110C   26068.18235348  .00012265  00000+0  42558-3 0  9994
2 64098  53.1606  29.2070 0001199  68.9679 291.1450 15.30196519 45804
